{
"type": "FeatureCollection",
"name": "kitwe_buildings_with_heights",
"crs": { "type": "name", "properties": { "name": "urn:ogc:def:crs:OGC:1.3:CRS84" } },
"features": [
{ "type": "Feature", "properties": { "id": "way/414887831", "@id": "way/414887831", "addr:street": null, "amenity": null, "building": "yes", "name": null, "name:en": null, "tourism": null, "height_m": 9.0323553085327166, "mean": 9.0323553085327166 }, "geometry": { "type": "Polygon", "coordinates": [ [ [ 28.2096594, -12.8175691 ], [ 28.209662, -12.817458 ], [ 28.2094687, -12.8174543 ], [ 28.2094659, -12.8175629 ], [ 28.2096594, -12.8175691 ] ] ] } },
{ "type": "Feature", "properties": { "id": "way/414887832", "@id": "way/414887832", "addr:street": null, "amenity": null, "building": "yes", "name": null, "name:en": null, "tourism": null, "height_m": 9.0323553085327166, "mean": 9.0323553085327166 }, "geometry": { "type": "Polygon", "coordinates": [ [ [ 28.209662, -12.817458 ], [ 28.2096644, -12.8173443 ], [ 28.209471, -12.8173405 ], [ 28.2094687, -12.8174543 ], [ 28.209662, -12.817458 ] ] ] } },
{ "type": "Feature", "properties": { "id": "way/414887833", "@id": "way/414887833", "addr:street": null, "amenity": null, "building": "yes", "name": null, "name:en": null, "tourism": null, "height_m": 9.0323553085327166, "mean": 9.0323553085327166 }, "geometry": { "type": "Polygon", "coordinates": [ [ [ 28.2094591, -12.817726 ], [ 28.2096513, -12.8177356 ], [ 28.2096594, -12.8175691 ], [ 28.2094659, -12.8175629 ], [ 28.2094669, -12.8176115 ], [ 28.2094591, -12.817726 ] ] ] } },
{ "type": "Feature", "properties": { "id": "way/414887834", "@id": "way/414887834", "addr:street": null, "amenity": null, "building": "yes", "name": null, "name:en": null, "tourism": null, "height_m": 9.0323553085327166, "mean": 9.0323553085327166 }, "geometry": { "type": "Polygon", "coordinates": [ [ [ 28.20926, -12.817821 ], [ 28.2093404, -12.8178262 ], [ 28.2093477, -12.8177187 ], [ 28.2094591, -12.817726 ], [ 28.2094669, -12.8176115 ], [ 28.2092752, -12.817599 ], [ 28.20926, -12.817821 ] ] ] } },
{ "type": "Feature", "properties": { "id": "way/1478607942", "@id": "way/1478607942", "addr:street": null, "amenity": null, "building": "retail", "name": null, "name:en": null, "tourism": null, "height_m": 13.985523223876951, "mean": 13.985523223876951 }, "geometry": { "type": "Polygon", "coordinates": [ [ [ 28.2088062, -12.8195998 ], [ 28.2088011, -12.8197402 ], [ 28.2088362, -12.8197414 ], [ 28.2088379, -12.8196937 ], [ 28.2089847, -12.8196986 ], [ 28.208989, -12.8195762 ], [ 28.2084221, -12.8195572 ], [ 28.2084231, -12.8195265 ], [ 28.2083561, -12.8195757 ], [ 28.2083549, -12.819657 ], [ 28.2083761, -12.8196566 ], [ 28.2084031, -12.8196575 ], [ 28.2084058, -12.8195823 ], [ 28.2085816, -12.8195883 ], [ 28.2085791, -12.8196555 ], [ 28.2086237, -12.819657 ], [ 28.208626, -12.8195937 ], [ 28.2088062, -12.8195998 ] ] ] } },
{ "type": "Feature", "properties": { "id": "way/1478607943", "@id": "way/1478607943", "addr:street": null, "amenity": null, "building": "commercial", "name": null, "name:en": null, "tourism": null, "height_m": 12.903879165649414, "mean": 12.903879165649414 }, "geometry": { "type": "Polygon", "coordinates": [ [ [ 28.2084612, -12.819219 ], [ 28.2087269, -12.8192236 ], [ 28.2087287, -12.8191224 ], [ 28.2086218, -12.8191206 ], [ 28.2086222, -12.8191005 ], [ 28.2085748, -12.8190996 ], [ 28.2085744, -12.8191176 ], [ 28.2084631, -12.8191157 ], [ 28.2084628, -12.8191359 ], [ 28.2084612, -12.819219 ] ] ] } },
{ "type": "Feature", "properties": { "id": "way/1478607944", "@id": "way/1478607944", "addr:street": null, "amenity": null, "building": "yes", "name": "Edinburgh", "name:en": null, "tourism": "hotel", "height_m": 13.777113974094393, "mean": 13.777113974094393 }, "geometry": { "type": "Polygon", "coordinates": [ [ [ 28.2090513, -12.8196667 ], [ 28.2090495, -12.8197689 ], [ 28.2093373, -12.8197736 ], [ 28.2093368, -12.8198057 ], [ 28.209388, -12.8198066 ], [ 28.2094918, -12.8198083 ], [ 28.2094932, -12.819728 ], [ 28.2095967, -12.8197296 ], [ 28.209598, -12.8196534 ], [ 28.2094283, -12.8196506 ], [ 28.2094279, -12.8196728 ], [ 28.2090513, -12.8196667 ] ] ] } },
{ "type": "Feature", "properties": { "id": "way/1478607945", "@id": "way/1478607945", "addr:street": null, "amenity": null, "building": "retail", "name": null, "name:en": null, "tourism": null, "height_m": 12.397733225966943, "mean": 12.397733225966943 }, "geometry": { "type": "Polygon", "coordinates": [ [ [ 28.2083927, -12.8192675 ], [ 28.208396, -12.8191344 ], [ 28.2081209, -12.8191268 ], [ 28.2081363, -12.8186519 ], [ 28.2080987, -12.8186509 ], [ 28.2080004, -12.81865 ], [ 28.2079829, -12.8191913 ], [ 28.2080499, -12.8192569 ], [ 28.2083927, -12.8192675 ] ] ] } },
{ "type": "Feature", "properties": { "id": "way/1478607946", "@id": "way/1478607946", "addr:street": null, "amenity": null, "building": "retail", "name": null, "name:en": null, "tourism": null, "height_m": 13.615017890930176, "mean": 13.615017890930176 }, "geometry": { "type": "Polygon", "coordinates": [ [ [ 28.2095967, -12.8197296 ], [ 28.2094932, -12.819728 ], [ 28.2094918, -12.8198083 ], [ 28.209388, -12.8198066 ], [ 28.2093809, -12.8200693 ], [ 28.2095901, -12.8200746 ], [ 28.2095967, -12.8197296 ] ] ] } },
{ "type": "Feature", "properties": { "id": "way/1478607947", "@id": "way/1478607947", "addr:street": null, "amenity": null, "building": "retail", "name": null, "name:en": null, "tourism": null, "height_m": 13.200661659240724, "mean": 13.200661659240724 }, "geometry": { "type": "Polygon", "coordinates": [ [ [ 28.2079428, -12.8201118 ], [ 28.2081051, -12.8201174 ], [ 28.2082385, -12.8201218 ], [ 28.208243, -12.8199919 ], [ 28.2081216, -12.8199879 ], [ 28.2079475, -12.819982 ], [ 28.2079428, -12.8201118 ] ] ] } },
{ "type": "Feature", "properties": { "id": "way/1478607948", "@id": "way/1478607948", "addr:street": null, "amenity": null, "building": "commercial", "name": null, "name:en": null, "tourism": null, "height_m": 13.985523223876951, "mean": 13.985523223876951 }, "geometry": { "type": "Polygon", "coordinates": [ [ [ 28.2084058, -12.8195823 ], [ 28.2084031, -12.8196575 ], [ 28.2083761, -12.8196566 ], [ 28.2083748, -12.8196939 ], [ 28.2083975, -12.8196947 ], [ 28.208395, -12.8197632 ], [ 28.2085748, -12.8197694 ], [ 28.2085769, -12.8197103 ], [ 28.2086222, -12.8197119 ], [ 28.20862, -12.8197737 ], [ 28.2087997, -12.8197799 ], [ 28.2088011, -12.8197402 ], [ 28.2088062, -12.8195998 ], [ 28.208626, -12.8195937 ], [ 28.2086237, -12.819657 ], [ 28.2085791, -12.8196555 ], [ 28.2085816, -12.8195883 ], [ 28.2084058, -12.8195823 ] ] ] } },
{ "type": "Feature", "properties": { "id": "way/1478607949", "@id": "way/1478607949", "addr:street": null, "amenity": null, "building": "retail", "name": null, "name:en": null, "tourism": null, "height_m": 13.200661659240724, "mean": 13.200661659240724 }, "geometry": { "type": "Polygon", "coordinates": [ [ [ 28.2079367, -12.8202546 ], [ 28.2081035, -12.8202571 ], [ 28.2081051, -12.8201174 ], [ 28.2079428, -12.8201118 ], [ 28.2079367, -12.8202546 ] ] ] } },
{ "type": "Feature", "properties": { "id": "way/1478607950", "@id": "way/1478607950", "addr:street": null, "amenity": null, "building": "retail", "name": null, "name:en": null, "tourism": null, "height_m": 13.200661659240724, "mean": 13.200661659240724 }, "geometry": { "type": "Polygon", "coordinates": [ [ [ 28.2079475, -12.819982 ], [ 28.2081216, -12.8199879 ], [ 28.2081232, -12.8199418 ], [ 28.208133, -12.8196967 ], [ 28.2079729, -12.8196906 ], [ 28.2079578, -12.8196901 ], [ 28.2079475, -12.819982 ] ] ] } },
{ "type": "Feature", "properties": { "id": "way/1478607953", "@id": "way/1478607953", "addr:street": "Obote Avenue", "amenity": "fast_food", "building": "retail", "name": "Chinese Mart", "name:en": "Divine Foods", "tourism": null, "height_m": 13.074520587921144, "mean": 13.074520587921144 }, "geometry": { "type": "Polygon", "coordinates": [ [ [ 28.208133, -12.8196967 ], [ 28.2081232, -12.8199418 ], [ 28.2082778, -12.8199478 ], [ 28.2082948, -12.8195292 ], [ 28.20798, -12.819517 ], [ 28.2079729, -12.8196906 ], [ 28.208133, -12.8196967 ] ] ] } },
{ "type": "Feature", "properties": { "id": "way/1478607954", "@id": "way/1478607954", "addr:street": null, "amenity": null, "building": "retail", "name": null, "name:en": null, "tourism": null, "height_m": 12.903879165649414, "mean": 12.903879165649414 }, "geometry": { "type": "Polygon", "coordinates": [ [ [ 28.2087287, -12.8191224 ], [ 28.2087269, -12.8192236 ], [ 28.2084612, -12.819219 ], [ 28.2084628, -12.8191359 ], [ 28.208396, -12.8191344 ], [ 28.2083927, -12.8192675 ], [ 28.2083921, -12.8192917 ], [ 28.2087841, -12.8193009 ], [ 28.2087886, -12.8191212 ], [ 28.2087287, -12.8191224 ] ] ] } },
{ "type": "Feature", "properties": { "id": "way/1478607955", "@id": "way/1478607955", "addr:street": null, "amenity": null, "building": "retail", "name": null, "name:en": null, "tourism": null, "height_m": 12.91376987256502, "mean": 12.91376987256502 }, "geometry": { "type": "Polygon", "coordinates": [ [ [ 28.2081035, -12.8202571 ], [ 28.2079367, -12.8202546 ], [ 28.2079343, -12.8204022 ], [ 28.2079798, -12.8204585 ], [ 28.208253, -12.8204626 ], [ 28.2082555, -12.8203081 ], [ 28.2081028, -12.8203057 ], [ 28.2081035, -12.8202571 ] ] ] } },
{ "type": "Feature", "properties": { "id": "way/1478607957", "@id": "way/1478607957", "addr:street": null, "amenity": null, "building": "retail", "name": null, "name:en": null, "tourism": null, "height_m": 11.600317620394522, "mean": 11.600317620394522 }, "geometry": { "type": "Polygon", "coordinates": [ [ [ 28.2080987, -12.8186509 ], [ 28.2081363, -12.8186519 ], [ 28.208201, -12.8186538 ], [ 28.2084004, -12.8186603 ], [ 28.2084203, -12.8180807 ], [ 28.2081149, -12.8180707 ], [ 28.2081121, -12.8181515 ], [ 28.2080987, -12.8186509 ] ] ] } },
{ "type": "Feature", "properties": { "id": "way/1478607958", "@id": "way/1478607958", "addr:street": null, "amenity": null, "building": "retail", "name": null, "name:en": null, "tourism": null, "height_m": 13.767578910378848, "mean": 13.767578910378848 }, "geometry": { "type": "Polygon", "coordinates": [ [ [ 28.2090513, -12.8196667 ], [ 28.2094279, -12.8196728 ], [ 28.2094283, -12.8196506 ], [ 28.209598, -12.8196534 ], [ 28.2095999, -12.8195827 ], [ 28.2090525, -12.8195745 ], [ 28.2090513, -12.8196667 ] ] ] } },
{ "type": "Feature", "properties": { "id": "way/1478607959", "@id": "way/1478607959", "addr:street": null, "amenity": null, "building": "retail", "name": null, "name:en": null, "tourism": null, "height_m": 11.516573905944824, "mean": 11.516573905944824 }, "geometry": { "type": "Polygon", "coordinates": [ [ [ 28.2080004, -12.81865 ], [ 28.2080987, -12.8186509 ], [ 28.2081121, -12.8181515 ], [ 28.2079947, -12.8181482 ], [ 28.2079798, -12.8186494 ], [ 28.2080004, -12.81865 ] ] ] } }
]
}
